<?xml version="1.0" encoding="UTF-8"?>
<gpx version="1.1" creator="TrailMap GPS Sample"
  xmlns="http://www.topografix.com/GPX/1/1">
  <metadata>
    <name>Sample Mountain Trail</name>
  </metadata>
  <trk>
    <name>Sample Mountain Trail</name>
    <trkseg>
      <trkpt lat="37.7450" lon="-119.5330"><ele>1200</ele></trkpt>
      <trkpt lat="37.7460" lon="-119.5320"><ele>1350</ele></trkpt>
      <trkpt lat="37.7475" lon="-119.5305"><ele>1520</ele></trkpt>
      <trkpt lat="37.7490" lon="-119.5290"><ele>1680</ele></trkpt>
      <trkpt lat="37.7505" lon="-119.5275"><ele>1850</ele></trkpt>
      <trkpt lat="37.7520" lon="-119.5260"><ele>2010</ele></trkpt>
      <trkpt lat="37.7535" lon="-119.5245"><ele>2150</ele></trkpt>
      <trkpt lat="37.7550" lon="-119.5230"><ele>2280</ele></trkpt>
    </trkseg>
  </trk>
</gpx>
